NORAD_CAT_ID,OBJECT_NAME,OBJECT_TYPE,EPOCH,MEAN_MOTION,ECCENTRICITY,INCLINATION,RA_OF_ASC_NODE,ARG_OF_PERICENTER,MEAN_ANOMALY,BSTAR,MEAN_MOTION_DOT,MEAN_MOTION_DDOT,TLE_LINE0,TLE_LINE1,TLE_LINE2,SEMIMAJOR_AXIS,PERIOD,APOGEE,PERIGEE,DECAYED
50806.0,STARLINK-3335,PAYLOAD,2024-08-01 09:13:22,15.08836663,0.0001583,53.2162,266.6609,88.423,271.6943,-0.00013429,-2.424e-05,0.0,0 STARLINK-3335,1 50806U 22001D   24214.38428963 -.00002424  00000-0 -13429-3 0  9996,2 50806  53.2162 266.6609 0001583  88.4230 271.6943 15.08836663143452,6917.891,95.438,540.851,538.66,0.0
50806.0,STARLINK-3335,PAYLOAD,2024-08-01 20:21:04,15.08841131,0.0001683,53.2175,264.5835,94.4219,265.6966,-5.9994e-05,-1.243e-05,0.0,0 STARLINK-3335,1 50806U 22001D   24214.84796960 -.00001243  00000-0 -59994-4 0  9998,2 50806  53.2175 264.5835 0001683  94.4219 265.6966 15.08841131142250,6917.877,95.437,540.906,538.578,0.0
50806.0,STARLINK-3335,PAYLOAD,2024-08-02 12:14:56,15.08837478,0.0001619,53.2167,261.6095,93.5938,266.5239,-5.0737e-05,-1.095e-05,0.0,0 STARLINK-3335,1 50806U 22001D   24215.51037397 -.00001095  00000-0 -50737-4 0  9996,2 50806  53.2167 261.6095 0001619  93.5938 266.5239 15.08837478143628,6917.888,95.438,540.873,538.633,0.0
50806.0,STARLINK-3335,PAYLOAD,2024-08-02 20:11:51,15.08840614,0.0001665,53.217,260.1208,85.4971,274.6211,-3.5259e-05,-8.49e-06,0.0,0 STARLINK-3335,1 50806U 22001D   24215.84157371 -.00000849  00000-0 -35259-4 0  9995,2 50806  53.2170 260.1208 0001665  85.4971 274.6211 15.08840614142401,6917.879,95.438,540.895,538.592,0.0
50806.0,STARLINK-3335,PAYLOAD,2024-08-03 10:30:20,15.08843676,0.0001571,53.2159,257.4449,86.4989,273.6183,0.00021675,3.164e-05,0.0,0 STARLINK-3335,1 50806U 22001D   24216.43773472  .00003164  00000-0  21675-3 0  9994,2 50806  53.2159 257.4449 0001571  86.4989 273.6183 15.08843676142497,6917.869,95.437,540.821,538.647,0.0
50806.0,STARLINK-3335,PAYLOAD,2024-08-03 20:02:39,15.08840222,0.0001608,53.2157,255.6604,85.6065,274.5111,0.00014667,2.047e-05,0.0,0 STARLINK-3335,1 50806U 22001D   24216.83517746  .00002047  00000-0  14667-3 0  9990,2 50806  53.2157 255.6604 0001608  85.6065 274.5111 15.08840222143828,6917.88,95.438,540.857,538.632,0.0
50806.0,STARLINK-3335,PAYLOAD,2024-08-04 08:45:44,15.08835064,0.000143,53.2136,253.2824,89.4022,270.7134,0.00011374,1.522e-05,0.0,0 STARLINK-3335,1 50806U 22001D   24217.36510158  .00001522  00000-0  11374-3 0  9998,2 50806  53.2136 253.2824 0001430  89.4022 270.7134 15.08835064143901,6917.895,95.438,540.75,538.771,0.0
50806.0,STARLINK-3335,PAYLOAD,2024-08-04 19:53:26,15.08847419,0.0001501,53.2149,251.1969,97.5565,262.5597,0.00021767,3.179e-05,0.0,0 STARLINK-3335,1 50806U 22001D   24217.82877566  .00003179  00000-0  21767-3 0  9995,2 50806  53.2149 251.1969 0001501  97.5565 262.5597 15.08847419143979,6917.858,95.437,540.761,538.684,0.0
50806.0,STARLINK-3335,PAYLOAD,2024-08-05 05:25:45,15.08841084,0.0001383,53.2143,249.414,98.5962,261.5186,0.00052744,8.116e-05,0.0,0 STARLINK-3335,1 50806U 22001D   24218.22621918  .00008116  00000-0  52744-3 0  9993,2 50806  53.2143 249.4140 0001383  98.5962 261.5186 15.08841084144037,6917.877,95.437,540.699,538.785,0.0
50806.0,STARLINK-3335,PAYLOAD,2024-08-05 08:36:30,15.08855911,0.0001491,53.2152,248.8184,103.0998,257.016,0.00023807,3.505e-05,0.0,0 STARLINK-3335,1 50806U 22001D   24218.35868963  .00003505  00000-0  23807-3 0  9995,2 50806  53.2152 248.8184 0001491 103.0998 257.0160 15.08855911142785,6917.832,95.437,540.728,538.665,0.0
50806.0,STARLINK-3335,PAYLOAD,2024-08-06 05:16:33,15.08816774,0.0001461,53.2145,244.9524,106.1001,254.0152,-0.00018966,-3.303e-05,0.0,0 STARLINK-3335,1 50806U 22001D   24219.21983570 -.00003303  00000-0 -18966-3 0  9991,2 50806  53.2145 244.9524 0001461 106.1001 254.0152 15.08816774144186,6917.951,95.439,540.827,538.806,0.0
50806.0,STARLINK-3335,PAYLOAD,2024-08-06 11:38:07,15.08807273,0.0001228,53.2144,243.7648,81.2769,278.8362,-0.00028758,-4.858e-05,0.0,0 STARLINK-3335,1 50806U 22001D   24219.48480395 -.00004858  00000-0 -28758-3 0  9993,2 50806  53.2144 243.7648 0001228  81.2769 278.8362 15.08807273144220,6917.98,95.44,540.695,538.996,0.0
50806.0,STARLINK-3335,PAYLOAD,2024-08-07 01:56:35,15.08826709,0.0001233,53.2145,241.087,90.74,269.3733,0.0001441,2.005e-05,0.0,0 STARLINK-3335,1 50806U 22001D   24220.08096402  .00002005  00000-0  14410-3 0  9993,2 50806  53.2145 241.0870 0001233  90.7400 269.3733 15.08826709144314,6917.921,95.438,540.639,538.933,0.0
50806.0,STARLINK-3335,PAYLOAD,2024-08-08 11:19:39,15.08878374,0.0001338,53.2148,234.8437,88.2792,271.8353,0.000899,0.00014064,0.0,0 STARLINK-3335,1 50806U 22001D   24221.47198386  .00014064  00000-0  89900-3 0  9995,2 50806  53.2148 234.8437 0001338  88.2792 271.8353 15.08878374144522,6917.763,95.435,540.554,538.703,0.0
50806.0,STARLINK-3335,PAYLOAD,2024-08-09 04:48:53,15.08861116,0.000222,53.2141,231.5633,129.7183,230.4005,-9.3741e-06,-4.38e-06,0.0,0 STARLINK-3335,1 50806U 22001D   24222.20061576 -.00000438  00000-0 -93741-5 0  9999,2 50806  53.2141 231.5633 0002220 129.7183 230.4005 15.08861116144636,6917.816,95.436,541.217,538.145,0.0
50806.0,STARLINK-3335,PAYLOAD,2024-08-09 06:24:16,15.08859246,0.0001815,53.2147,231.2682,130.0412,230.074,-1.9702e-05,-6.02e-06,0.0,0 STARLINK-3335,1 50806U 22001D   24222.26685587 -.00000602  00000-0 -19702-4 0  9996,2 50806  53.2147 231.2682 0001815 130.0412 230.0740 15.08859246143375,6917.822,95.436,540.942,538.431,0.0
50806.0,STARLINK-3335,PAYLOAD,2024-08-09 17:31:58,15.0884784,0.000118,53.2143,229.1914,87.177,272.9357,2.1435e-05,5.3e-07,0.0,0 STARLINK-3335,1 50806U 22001D   24222.73053918  .00000053  00000-0  21435-4 0  9999,2 50806  53.2143 229.1914 0001180  87.1770 272.9357 15.08847840144714,6917.856,95.437,540.538,538.905,0.0
50806.0,STARLINK-3335,PAYLOAD,2024-08-10 07:50:26,15.0884857,0.0001338,53.2148,226.5159,89.9792,270.1353,1.2366e-05,-9.1e-07,0.0,0 STARLINK-3335,1 50806U 22001D   24223.32669810 -.00000091  00000-0  12366-4 0  9995,2 50806  53.2148 226.5159 0001338  89.9792 270.1353 15.08848570143536,6917.854,95.437,540.645,538.794,0.0
50806.0,STARLINK-3335,PAYLOAD,2024-08-11 06:05:50,15.08845929,0.0001381,53.2144,222.3529,89.4956,270.6194,0.00021093,3.071e-05,0.0,0 STARLINK-3335,1 50806U 22001D   24224.25406016  .00003071  00000-0  21093-3 0  9991,2 50806  53.2144 222.3529 0001381  89.4956 270.6194 15.08845929144941,6917.862,95.437,540.683,538.772,0.0
50806.0,STARLINK-3335,PAYLOAD,2024-08-11 17:13:32,15.08848043,0.0001431,53.2147,220.2717,90.3148,269.8008,0.00023492,3.454e-05,0.0,0 STARLINK-3335,1 50806U 22001D   24224.71773898  .00003454  00000-0  23492-3 0  9997,2 50806  53.2147 220.2717 0001431  90.3148 269.8008 15.08848043143741,6917.856,95.437,540.711,538.731,0.0
50806.0,STARLINK-3335,PAYLOAD,2024-08-12 04:21:14,15.08842365,0.0001591,53.2151,218.1903,93.3431,266.7743,0.00010007,1.305e-05,0.0,0 STARLINK-3335,1 50806U 22001D   24225.18142068  .00001305  00000-0  10007-3 0  9999,2 50806  53.2151 218.1903 0001591  93.3431 266.7743 15.08842365145086,6917.873,95.437,540.839,538.638,0.0
50806.0,STARLINK-3335,PAYLOAD,2024-08-12 10:42:46,15.08865214,0.000126,53.2153,216.9995,110.8781,249.2346,0.00039311,5.978e-05,0.0,0 STARLINK-3335,1 50806U 22001D   24225.44636702  .00005978  00000-0  39311-3 0  9990,2 50806  53.2153 216.9995 0001260 110.8781 249.2346 15.08865214145129,6917.803,95.436,540.54,538.797,0.0
50806.0,STARLINK-3335,PAYLOAD,2024-08-12 17:04:19,15.08839667,0.0001737,53.2148,215.8116,86.495,273.6241,3.685e-05,2.98e-06,0.0,0 STARLINK-3335,1 50806U 22001D   24225.71134094  .00000298  00000-0  36850-4 0  9993,2 50806  53.2148 215.8116 0001737  86.4950 273.6241 15.08839667145163,6917.881,95.438,540.948,538.545,0.0
50806.0,STARLINK-3335,PAYLOAD,2024-08-13 05:47:24,15.08844917,0.0001622,53.2151,213.4306,94.5204,265.5973,0.00012438,1.692e-05,0.0,0 STARLINK-3335,1 50806U 22001D   24226.24125704  .00001692  00000-0  12438-3 0  9994,2 50806  53.2151 213.4306 0001622  94.5204 265.5973 15.08844917143970,6917.865,95.437,540.852,538.608,0.0
50806.0,STARLINK-3335,PAYLOAD,2024-08-13 23:16:40,15.08829389,0.0001767,53.2153,210.1623,84.5325,275.5868,-7.5327e-05,-1.486e-05,0.0,0 STARLINK-3335,1 50806U 22001D   24226.96990796 -.00001486  00000-0 -75327-4 0  9994,2 50806  53.2153 210.1623 0001767  84.5325 275.5868 15.08829389144084,6917.913,95.438,541.0,538.555,0.0
50806.0,STARLINK-3335,PAYLOAD,2024-08-14 04:02:49,15.08826105,0.0001601,53.2157,209.2655,106.5079,253.6089,-9.8744e-05,-1.859e-05,0.0,0 STARLINK-3335,1 50806U 22001D   24227.16863111 -.00001859  00000-0 -98744-4 0  9999,2 50806  53.2157 209.2655 0001601 106.5079 253.6089 15.08826105145389,6917.923,95.438,540.895,538.68,0.0
50806.0,STARLINK-3335,PAYLOAD,2024-08-14 08:48:58,15.08838656,0.0001268,53.2142,208.3762,96.9886,263.1251,-0.00061913,-0.00010127,0.0,0 STARLINK-3335,1 50806U 22001D   24227.36734585 -.00010127  00000-0 -61913-3 0  9998,2 50806  53.2142 208.3762 0001268  96.9886 263.1251 15.08838656145414,6917.884,95.438,540.627,538.872,0.0
50806.0,STARLINK-3335,PAYLOAD,2024-08-15 15:01:18,15.0884102,0.0001251,53.2151,202.7266,87.3419,272.7716,0.00018917,2.724e-05,0.0,0 STARLINK-3335,1 50806U 22001D   24228.62591359  .00002724  00000-0  18917-3 0  9996,2 50806  53.2151 202.7266 0001251  87.3419 272.7716 15.08841020144330,6917.877,95.437,540.608,538.877,0.0
50806.0,STARLINK-3335,PAYLOAD,2024-08-16 05:19:47,15.08853473,0.0001198,53.2146,200.0503,86.7284,273.3845,0.00051709,7.954e-05,0.0,0 STARLINK-3335,1 50806U 22001D   24229.22207198  .00007954  00000-0  51709-3 0  9994,2 50806  53.2146 200.0503 0001198  86.7284 273.3845 15.08853473144427,6917.839,95.437,540.533,538.875,0.0
50806.0,STARLINK-3335,PAYLOAD,2024-08-17 05:10:33,15.08848328,0.0001287,53.2141,195.5908,88.6572,271.4568,0.00012027,1.627e-05,0.0,0 STARLINK-3335,1 50806U 22001D   24230.21566937  .00001627  00000-0  12027-3 0  9995,2 50806  53.2141 195.5908 0001287  88.6572 271.4568 15.08848328145840,6917.855,95.437,540.61,538.83,0.0
